LEMUR-2-JK0903EM1407    
1 58336U 23174CJ  26094.92734570  .00029156  00000+0  55420-3 0  9991
2 58336  97.3895 183.5651 0004854  29.2566 330.8956 15.48206511134384
LEMUR-2-MJR092620       
1 58340U 23174CN  26094.78117034  .00017640  00000+0  40308-3 0  9994
2 58340  97.3966 183.5970 0007150  35.0527 325.1190 15.42884128134327
LEMUR-2-NIMBUS2000      
1 58899U 24022A   26094.53370482  .00024226  00000+0  65276-3 0  9996
2 58899  97.4194 303.7027 0009716  31.2016 328.9804 15.37777410120945
LEMUR-2-VALHALLA        
1 58900U 24022B   26094.51694202  .00023864  00000+0  64809-3 0  9994
2 58900  97.4189 303.7092 0010127  26.9034 333.2734 15.37531657120945
LEMUR-2-OBA-NI-JESU     
1 58902U 24022D   26094.57118000  .00160279  00000+0  12068-2 0  9990
2 58902  97.3986 314.0656 0002275 336.9025  23.2135 15.72040182121658
LEMUR-2-CAEL            
1 58903U 24022E   26094.52024503  .00023682  00000+0  61969-3 0  9991
2 58903  97.4174 304.5267 0007999  12.0597 348.0838 15.38700684121004
LEMUR-2-JOHNNYTRUONG    
1 59146U 24043BA  26094.92182013  .00041324  00000+0  60809-3 0  9994
2 59146  97.5307 242.4224 0004975  96.0018 264.1803 15.55327250116633
LEMUR-2-TOMATOKECHUP    
1 60471U 24149D   26094.78239387  .00017372  00000+0  52096-3 0  9990
2 60471  97.3809 176.7261 0003212 121.4946 238.6611 15.34536711 90902
LEMUR-2-STELLA          
1 60533U 24149BT  26094.77253840  .00018802  00000+0  11513-2 0  9995
2 60533  97.6743 176.9994 0000824 120.5719 239.5592 15.10241770 89414
LEMUR-2-MARHISYAM       
1 60536U 24149BW  26094.72799619  .00016996  00000+0  10552-2 0  9996
2 60536  97.6878 177.3249 0002167  48.4623 311.6791 15.09761393 89394
LEMUR-2-AHMED-ASRAR     
1 60576U 24149DN  26094.76319617  .00017060  00000+0  10208-2 0  9991
2 60576  97.7006 179.1805 0001273 203.4333 156.6839 15.11106279 89476
LEMUR-2-LLOYD           
1 60577U 24149DP  26094.21451895  .00020845  00000+0  13616-2 0  9998
2 60577  97.6764 175.3855 0004711  59.3933 300.7759 15.07842520 89243
LEMUR-2-SQUIRRELCOMM    
1 60578U 24149DQ  26094.93750068  .00008379  00000+0  57391-3 0  9999
2 60578  97.6725 176.1269 0003991 308.6878  51.3992 15.06312695 89372
LEMUR-2-SIERRINI        
1 60579U 24149DR  26094.80226037  .00016635  00000+0  10417-2 0  9991
2 60579  97.6847 177.1608 0006379  78.6510 281.5435 15.09436946 89385
LEMUR-2-WILSON          
1 62694U 25009CP  26094.67156007  .00004195  00000+0  39035-3 0  9997
2 62694  97.7039 174.4399 0001891 286.1477  73.9535 14.94844304 66370
LEMUR-2-STAR-FOX        
1 62696U 25009CR  26094.80900791  .00014885  00000+0  11546-2 0  9994
2 62696  97.6979 177.0309 0003338 108.6059 251.5528 15.01468769 66547
