[{"OBJECT_NAME":"LEMUR-2-JK0903EM1407","OBJECT_ID":"2023-174CJ","EPOCH":"2026-04-04T22:15:22.668480","MEAN_MOTION":15.48206511,"ECCENTRICITY":0.0004854,"INCLINATION":97.3895,"RA_OF_ASC_NODE":183.5651,"ARG_OF_PERICENTER":29.2566,"MEAN_ANOMALY":330.8956,"EPHEMERIS_TYPE":0,"CLASSIFICATION_TYPE":"U","NORAD_CAT_ID":58336,"ELEMENT_SET_NO":999,"REV_AT_EPOCH":13438,"BSTAR":0.00055419786,"MEAN_MOTION_DOT":0.00029156,"MEAN_MOTION_DDOT":0},{"OBJECT_NAME":"LEMUR-2-MJR092620","OBJECT_ID":"2023-174CN","EPOCH":"2026-04-04T18:44:53.117376","MEAN_MOTION":15.42884128,"ECCENTRICITY":0.00071501,"INCLINATION":97.3966,"RA_OF_ASC_NODE":183.597,"ARG_OF_PERICENTER":35.0527,"MEAN_ANOMALY":325.119,"EPHEMERIS_TYPE":0,"CLASSIFICATION_TYPE":"U","NORAD_CAT_ID":58340,"ELEMENT_SET_NO":999,"REV_AT_EPOCH":13432,"BSTAR":0.000403075,"MEAN_MOTION_DOT":0.0001764,"MEAN_MOTION_DDOT":0},{"OBJECT_NAME":"LEMUR-2-NIMBUS2000","OBJECT_ID":"2024-022A","EPOCH":"2026-04-04T12:48:32.096448","MEAN_MOTION":15.3777741,"ECCENTRICITY":0.00097162,"INCLINATION":97.4194,"RA_OF_ASC_NODE":303.7027,"ARG_OF_PERICENTER":31.2016,"MEAN_ANOMALY":328.9804,"EPHEMERIS_TYPE":0,"CLASSIFICATION_TYPE":"U","NORAD_CAT_ID":58899,"ELEMENT_SET_NO":999,"REV_AT_EPOCH":12094,"BSTAR":0.00065275967,"MEAN_MOTION_DOT":0.00024226,"MEAN_MOTION_DDOT":0},{"OBJECT_NAME":"LEMUR-2-VALHALLA","OBJECT_ID":"2024-022B","EPOCH":"2026-04-04T12:24:23.790528","MEAN_MOTION":15.37531657,"ECCENTRICITY":0.00101278,"INCLINATION":97.4189,"RA_OF_ASC_NODE":303.7092,"ARG_OF_PERICENTER":26.9034,"MEAN_ANOMALY":333.2734,"EPHEMERIS_TYPE":0,"CLASSIFICATION_TYPE":"U","NORAD_CAT_ID":58900,"ELEMENT_SET_NO":999,"REV_AT_EPOCH":12094,"BSTAR":0.00064809108,"MEAN_MOTION_DOT":0.00023864,"MEAN_MOTION_DDOT":0},{"OBJECT_NAME":"LEMUR-2-OBA-NI-JESU","OBJECT_ID":"2024-022D","EPOCH":"2026-04-04T13:42:29.952000","MEAN_MOTION":15.72040182,"ECCENTRICITY":0.0002275,"INCLINATION":97.3986,"RA_OF_ASC_NODE":314.0656,"ARG_OF_PERICENTER":336.9025,"MEAN_ANOMALY":23.2135,"EPHEMERIS_TYPE":0,"CLASSIFICATION_TYPE":"U","NORAD_CAT_ID":58902,"ELEMENT_SET_NO":999,"REV_AT_EPOCH":12165,"BSTAR":0.0012068,"MEAN_MOTION_DOT":0.00160279,"MEAN_MOTION_DDOT":0},{"OBJECT_NAME":"LEMUR-2-CAEL","OBJECT_ID":"2024-022E","EPOCH":"2026-04-04T12:29:09.170592","MEAN_MOTION":15.38700684,"ECCENTRICITY":0.00079999,"INCLINATION":97.4174,"RA_OF_ASC_NODE":304.5267,"ARG_OF_PERICENTER":12.0597,"MEAN_ANOMALY":348.0838,"EPHEMERIS_TYPE":0,"CLASSIFICATION_TYPE":"U","NORAD_CAT_ID":58903,"ELEMENT_SET_NO":999,"REV_AT_EPOCH":12100,"BSTAR":0.0006196923,"MEAN_MOTION_DOT":0.00023682,"MEAN_MOTION_DDOT":0},{"OBJECT_NAME":"LEMUR-2-JOHNNYTRUONG","OBJECT_ID":"2024-043BA","EPOCH":"2026-04-04T22:07:25.259232","MEAN_MOTION":15.5532725,"ECCENTRICITY":0.00049753,"INCLINATION":97.5307,"RA_OF_ASC_NODE":242.4224,"ARG_OF_PERICENTER":96.0018,"MEAN_ANOMALY":264.1803,"EPHEMERIS_TYPE":0,"CLASSIFICATION_TYPE":"U","NORAD_CAT_ID":59146,"ELEMENT_SET_NO":999,"REV_AT_EPOCH":11663,"BSTAR":0.00060808835,"MEAN_MOTION_DOT":0.00041324,"MEAN_MOTION_DDOT":0},{"OBJECT_NAME":"LEMUR-2-TOMATOKECHUP","OBJECT_ID":"2024-149D","EPOCH":"2026-04-04T18:46:38.830368","MEAN_MOTION":15.34536711,"ECCENTRICITY":0.0003212,"INCLINATION":97.3809,"RA_OF_ASC_NODE":176.7261,"ARG_OF_PERICENTER":121.4946,"MEAN_ANOMALY":238.6611,"EPHEMERIS_TYPE":0,"CLASSIFICATION_TYPE":"U","NORAD_CAT_ID":60471,"ELEMENT_SET_NO":999,"REV_AT_EPOCH":9090,"BSTAR":0.00052096,"MEAN_MOTION_DOT":0.00017372,"MEAN_MOTION_DDOT":0},{"OBJECT_NAME":"LEMUR-2-STELLA","OBJECT_ID":"2024-149BT","EPOCH":"2026-04-04T18:32:27.317760","MEAN_MOTION":15.1024177,"ECCENTRICITY":8.246e-5,"INCLINATION":97.6743,"RA_OF_ASC_NODE":176.9994,"ARG_OF_PERICENTER":120.5719,"MEAN_ANOMALY":239.5592,"EPHEMERIS_TYPE":0,"CLASSIFICATION_TYPE":"U","NORAD_CAT_ID":60533,"ELEMENT_SET_NO":999,"REV_AT_EPOCH":8941,"BSTAR":0.001151341,"MEAN_MOTION_DOT":0.00018802,"MEAN_MOTION_DDOT":0},{"OBJECT_NAME":"LEMUR-2-MARHISYAM","OBJECT_ID":"2024-149BW","EPOCH":"2026-04-04T17:28:18.870816","MEAN_MOTION":15.09761393,"ECCENTRICITY":0.00021679,"INCLINATION":97.6878,"RA_OF_ASC_NODE":177.3249,"ARG_OF_PERICENTER":48.4623,"MEAN_ANOMALY":311.6791,"EPHEMERIS_TYPE":0,"CLASSIFICATION_TYPE":"U","NORAD_CAT_ID":60536,"ELEMENT_SET_NO":999,"REV_AT_EPOCH":8939,"BSTAR":0.0010551911,"MEAN_MOTION_DOT":0.00016996,"MEAN_MOTION_DDOT":0},{"OBJECT_NAME":"LEMUR-2-AHMED-ASRAR","OBJECT_ID":"2024-149DN","EPOCH":"2026-04-04T18:19:00.149088","MEAN_MOTION":15.11106279,"ECCENTRICITY":0.00012734,"INCLINATION":97.7006,"RA_OF_ASC_NODE":179.1805,"ARG_OF_PERICENTER":203.4333,"MEAN_ANOMALY":156.6839,"EPHEMERIS_TYPE":0,"CLASSIFICATION_TYPE":"U","NORAD_CAT_ID":60576,"ELEMENT_SET_NO":999,"REV_AT_EPOCH":8947,"BSTAR":0.001020803,"MEAN_MOTION_DOT":0.0001706,"MEAN_MOTION_DDOT":0},{"OBJECT_NAME":"LEMUR-2-LLOYD","OBJECT_ID":"2024-149DP","EPOCH":"2026-04-04T05:08:54.437280","MEAN_MOTION":15.0784252,"ECCENTRICITY":0.00047117,"INCLINATION":97.6764,"RA_OF_ASC_NODE":175.3855,"ARG_OF_PERICENTER":59.3933,"MEAN_ANOMALY":300.7759,"EPHEMERIS_TYPE":0,"CLASSIFICATION_TYPE":"U","NORAD_CAT_ID":60577,"ELEMENT_SET_NO":999,"REV_AT_EPOCH":8924,"BSTAR":0.0013616015,"MEAN_MOTION_DOT":0.00020845,"MEAN_MOTION_DDOT":0},{"OBJECT_NAME":"LEMUR-2-SQUIRRELCOMM","OBJECT_ID":"2024-149DQ","EPOCH":"2026-04-04T22:30:00.058752","MEAN_MOTION":15.06312695,"ECCENTRICITY":0.00039914,"INCLINATION":97.6725,"RA_OF_ASC_NODE":176.1269,"ARG_OF_PERICENTER":308.6878,"MEAN_ANOMALY":51.3992,"EPHEMERIS_TYPE":0,"CLASSIFICATION_TYPE":"U","NORAD_CAT_ID":60578,"ELEMENT_SET_NO":999,"REV_AT_EPOCH":8937,"BSTAR":0.00057391156,"MEAN_MOTION_DOT":8.379e-5,"MEAN_MOTION_DDOT":0},{"OBJECT_NAME":"LEMUR-2-SIERRINI","OBJECT_ID":"2024-149DR","EPOCH":"2026-04-04T19:15:15.295968","MEAN_MOTION":15.09436946,"ECCENTRICITY":0.00063791,"INCLINATION":97.6847,"RA_OF_ASC_NODE":177.1608,"ARG_OF_PERICENTER":78.651,"MEAN_ANOMALY":281.5435,"EPHEMERIS_TYPE":0,"CLASSIFICATION_TYPE":"U","NORAD_CAT_ID":60579,"ELEMENT_SET_NO":999,"REV_AT_EPOCH":8938,"BSTAR":0.0010416685,"MEAN_MOTION_DOT":0.00016635,"MEAN_MOTION_DDOT":0},{"OBJECT_NAME":"LEMUR-2-WILSON","OBJECT_ID":"2025-009CP","EPOCH":"2026-04-04T16:07:02.790048","MEAN_MOTION":14.94844304,"ECCENTRICITY":0.00018919,"INCLINATION":97.7039,"RA_OF_ASC_NODE":174.4399,"ARG_OF_PERICENTER":286.1477,"MEAN_ANOMALY":73.9535,"EPHEMERIS_TYPE":0,"CLASSIFICATION_TYPE":"U","NORAD_CAT_ID":62694,"ELEMENT_SET_NO":999,"REV_AT_EPOCH":6637,"BSTAR":0.0003903495,"MEAN_MOTION_DOT":4.195e-5,"MEAN_MOTION_DDOT":0},{"OBJECT_NAME":"LEMUR-2-STAR-FOX","OBJECT_ID":"2025-009CR","EPOCH":"2026-04-04T19:24:58.283424","MEAN_MOTION":15.01468769,"ECCENTRICITY":0.00033382,"INCLINATION":97.6979,"RA_OF_ASC_NODE":177.0309,"ARG_OF_PERICENTER":108.6059,"MEAN_ANOMALY":251.5528,"EPHEMERIS_TYPE":0,"CLASSIFICATION_TYPE":"U","NORAD_CAT_ID":62696,"ELEMENT_SET_NO":999,"REV_AT_EPOCH":6654,"BSTAR":0.0011546323,"MEAN_MOTION_DOT":0.00014885,"MEAN_MOTION_DDOT":0}]
